ONEWEB-0319             
1 49105U 21075AG  24296.92363809 -.00000194  00000+0 -53204-3 0  9999
2 49105  87.9078 125.8631 0001039  88.6099 271.5151 13.17649973154292
ONEWEB-0323             
1 49106U 21075AH  24296.91955957  .00000026  00000+0  37883-4 0  9998
2 49106  87.8838 110.5978 0000807 110.1539 249.9676 13.12442309155553
ONEWEB-0329             
1 49107U 21075AJ  24296.93208290  .00000054  00000+0  10551-3 0  9995
2 49107  87.9079 125.8658 0001374  80.6733 279.4554 13.17651408154271
ONEWEB-0330             
1 49108U 21075AK  24296.93376254 -.00000614  00000+0 -16138-2 0  9992
2 49108  87.9077 125.8659 0001506  79.4808 280.6493 13.17652740154318
ONEWEB-0292             
1 49186U 21083A   24296.90421594 -.00000535  00000+0 -14995-2 0  9993
2 49186  87.8882  80.0720 0001377 104.7473 255.3809 13.13470996151868
ONEWEB-0303             
1 49187U 21083B   24296.92141185  .00000017  00000+0  11053-4 0  9998
2 49187  87.9060  95.3134 0001445  99.5627 260.5669 13.18687572150602
ONEWEB-0306             
1 49188U 21083C   24296.91192708  .00000073  00000+0  15318-3 0  9994
2 49188  87.9062  95.3017 0001675  85.8369 274.2955 13.18684201150641
ONEWEB-0307             
1 49189U 21083D   24296.82250930 -.00000218  00000+0 -63061-3 0  9998
2 49189  87.8887  80.0885 0001726  83.2793 276.8533 13.13471079151856
